IRIDIUM 136             
1 42962U 17061H   24197.59155652  .00000032  00000+0  42879-5 0  9998
2 42962  86.3988 318.4472 0002253 102.6052 257.5395 14.34216075354274
